#aV2013  2 12  0  0  0.00000000     288 DD+AD WGS84 FIT  NGA
## 1727 172800.00000000   300.00000000 56335 0.0000000000000
+   31     1  2  3  4  5  6  7  8  9 10 11 12 13 14 15 16 17
+         18 19 20 21 22 23 24 25 26 28 29 30 31 32  0  0  0
+          0  0  0  0  0  0  0  0  0  0  0  0  0  0  0  0  0
+          0  0  0  0  0  0  0  0  0  0  0  0  0  0  0  0  0
+          0  0  0  0  0  0  0  0  0  0  0  0  0  0  0  0  0
++         2  2  2  2  2  2  2  2  2  2  2  2  2  2  2  2  2
++         2  2  2  2  2  2  2  2  2  2  2  2  2  2  2  0  0
++         0  0  0  0  0  0  0  0  0  0  0  0  0  0  0  0  0
++         0  0  0  0  0  0  0  0  0  0  0  0  0  0  0  0  0
++         0  0  0  0  0  0  0  0  0  0  0  0  0  0  0  0  0
%c cc cc ccc ccc cccc cccc cccc cccc ccccc ccccc ccccc ccccc
%c cc cc ccc ccc cccc cccc cccc cccc ccccc ccccc ccccc ccccc
%f  0.0000000  0.000000000  0.00000000000  0.000000000000000
%f  0.0000000  0.000000000  0.00000000000  0.000000000000000
%i    0    0    0    0      0      0      0      0         0
%i    0    0    0    0      0      0      0      0         0
/*      NGA, ST. LOUIS,MO.                                  
/*   EPHEMERIS COMPUTED FROM  1 DAYS OF DATA
/*   EPOCHA SMOOTHER  
/* CCCCCCCCCCCCCCCCCCCCCCCCCCCCCCCCCCCCCCCCCCCCCCCCCCCCCCCCC
*  2013  2 12 12  5  0.00000000                                                 
P  1  20831.086337  14075.081515  -8698.983075     -0.027151                    
V  1 -11199.113188  -1388.569885 -29066.960345      0.026879                    
P  2   -252.379799 -16425.364474  21122.072842    418.238012                    
V  2  25130.726341   8140.481866   6171.889939      0.015810                    
P  3  -3333.328232  21277.687010 -15898.792278    167.464722                    
V  3 -14874.286971  12786.672869  21128.886493      0.050652                    
P  4  15054.112005  -9698.588313  19422.828165    132.424377                    
V  4  23292.866058   9870.086324 -12655.446218      0.111560                    
P  5  -2455.644546 -26192.459197   3013.006676   -383.372882                    
V  5   3921.741895   3251.096078  31270.111831     -0.018211                    
P  6 -10258.756534  21350.697966 -11563.821661    353.577597                    
V  6 -13087.768086   7995.022996  26498.636926     -0.144196                    
P  7  25446.215021   5571.164943  -5874.836040    179.793523                    
V  7   6212.789766   4571.778516  30745.438231      0.043606                    
P  8  21545.402321   -733.552552 -15799.563284      4.590351                    
V  8  17541.073687   9531.622036  22758.670064      0.002800                    
P  9  -4610.600080 -16398.463850 -20897.153000    220.156308                    
V  9  24015.094864   7908.809595 -11869.746969      0.025794                    
P 10   9759.230078 -17411.318064  17028.994948    -69.623147                    
V 10   5789.622242  21761.866290  19027.446665     -0.013751                    
P 11  16619.915206  13951.798442 -15919.554135   -352.776504                    
V 11 -19748.973006   1764.449035 -19320.669959     -0.036639                    
P 12 -11431.847428 -20539.124089  12541.726821    117.463062                    
V 12   -679.710634 -15913.806729 -26437.971748      0.020812                    
P 13  20151.822056    149.007523  17219.359851    145.340523                    
V 13 -17478.999287  13496.752104  20064.359028     -0.029064                    
P 14 -21985.062233  14667.078638  -1517.150809    220.421859                    
V 14    299.876516  -3277.353537 -32092.926090      0.002912                    
P 15  -6707.581189 -14593.418421 -21146.114038   -108.126417                    
V 15  20635.626970 -17275.431890   5634.663393     -0.012363                    
P 16    494.586985  26041.856736   4167.260510   -252.337034                    
V 16  -2995.352893  -5002.638024  31884.617032     -0.001559                    
P 17  20883.129485 -16193.440143     55.303927     50.425591                    
V 17   1634.019444   2407.750719 -32004.801984     -0.038226                    
P 18 -15855.094899    425.737211 -20938.378101    239.026263                    
V 18  -4511.220806 -27230.814469   2461.456702      0.019078                    
P 19   2506.696307  16067.131535 -20999.710048   -347.976683                    
V 19 -22369.453414  14364.956838   8755.168887     -0.032325                    
P 20  13985.992232  18608.169796  12682.528381     83.820622                    
V 20    658.308767  16709.497747 -24818.064913      0.015979                    
P 21 -25125.646946  -2443.576336  -8552.373482   -280.196232                    
V 21  -9718.307913  -6863.964208  28160.885003     -0.022269                    
P 22 -12002.330050  14067.880781 -18834.855496    158.225000                    
V 22  -5955.701059 -23816.786743 -13992.873861      0.011348                    
P 23  14027.687845   7881.752175  21249.077340    114.651757                    
V 23 -20475.189074  17285.060439   6746.983363     -0.036879                    
P 24 -18267.098146 -15277.790439 -11798.866946     -0.938457                    
V 24  14900.992600   2777.495486 -26639.002912     -0.006154                    
P 25 -15310.334342  -9347.733376  19578.696544     69.719704                    
V 25  -3420.856329 -24670.829185 -14340.703477      0.029538                    
P 26   6650.349685 -19051.685835 -17715.945136   -104.042281                    
V 26  18328.865185 -11028.709552  19789.837430      0.140564                    
P 28  12694.618846  -9707.578929 -20593.343362    231.996645                    
V 28   4135.120183  27188.293962 -10170.515926      0.033603                    
P 29 -20107.323806    159.373885  17387.599366    407.161949                    
V 29  16515.859831 -14585.741133  19332.944831      0.037262                    
P 30  -3906.889808  22030.790914  13976.560405   -227.422007                    
V 30  -7090.548291 -17051.117598  24267.353696      0.093883                    
P 31 -10841.332558  11325.948423  21661.409290    302.101096                    
V 31 -24996.909137 -10132.427651  -7004.105012      0.017353                    
P 32   7534.988539  24676.574094   7499.191133   -534.818061                    
V 32  -1731.076591   9394.503933 -29250.422457     -0.033841                    
EOF
